H1 CPF 01  gfz 2022 06 25 12  6762 terrasarx 
H2 0702601  6201 31698    2022 06 25 12 59 42 2022 06 30 00 00 42   120 1 1  0 0 0
H9
10 0 59757   6462.000000  0    2174732.884   5418621.338   3647178.938
10 0 59757   6582.000000  0    2513018.195   5741047.518   2852497.800
10 0 59757   6702.000000  0    2812084.087   5957521.572   2007590.774
10 0 59757   6822.000000  0    3064821.382   6065007.330   1127334.759
10 0 59757   6942.000000  0    3264904.805   6062509.935    227231.638
10 0 59757   7062.000000  0    3406941.269   5951079.549   -676872.243
10 0 59757   7182.000000  0    3486600.783   5733773.257  -1569073.605
10 0 59757   7302.000000  0    3500725.601   5415577.181  -2433699.592
10 0 59757   7422.000000  0    3447415.674   5003290.435  -3255590.058
10 0 59757   7542.000000  0    3326087.065   4505373.456  -4020367.639
10 0 59757   7662.000000  0    3137502.940   3931766.351  -4714688.688
10 0 59757   7782.000000  0    2883777.330   3293683.289  -5326472.637
10 0 59757   7902.000000  0    2568352.018   2603386.192  -5845105.237
10 0 59757   8022.000000  0    2195947.541   1873944.096  -6261613.000
10 0 59757   8142.000000  0    1772489.256   1118983.482  -6568806.841
10 0 59757   8262.000000  0    1305012.035    352435.067  -6761394.195
10 0 59757   8382.000000  0     801543.638   -411719.048  -6836061.910
10 0 59757   8502.000000  0     270967.381  -1159695.814  -6791526.719
10 0 59757   8622.000000  0    -277131.081  -1878153.192  -6628553.173
10 0 59757   8742.000000  0    -832631.910  -2554421.299  -6349942.810
10 0 59757   8862.000000  0   -1385063.658  -3176722.649  -5960492.153
10 0 59757   8982.000000  0   -1923795.673  -3734375.454  -5466917.982
10 0 59757   9102.000000  0   -2438238.641  -4217978.259  -4877753.334
10 0 59757   9222.000000  0   -2918051.419  -4619574.121  -4203212.012
10 0 59757   9342.000000  0   -3353348.986  -4932788.590  -3455021.114
10 0 59757   9462.000000  0   -3734906.771  -5152938.938  -2646225.336
10 0 59757   9582.000000  0   -4054358.049  -5277112.365  -1790964.693
10 0 59757   9702.000000  0   -4304379.040  -5304210.214   -904228.411
10 0 59757   9822.000000  0   -4478856.453  -5234956.542     -1589.365
10 0 59757   9942.000000  0   -4573032.852  -5071870.104    901075.518
10 0 59757  10062.000000  0   -4583626.075  -4819199.631   1787873.362
10 0 59757  10182.000000  0   -4508918.431  -4482822.948   2643184.788
10 0 59757  10302.000000  0   -4348813.904  -4070113.657   3451947.181
10 0 59757  10422.000000  0   -4104862.603  -3589779.176   4199926.515
10 0 59757  10542.000000  0   -3780250.987  -3051673.496   4873972.507
10 0 59757  10662.000000  0   -3379758.620  -2466589.864   5462249.753
10 0 59757  10782.000000  0   -2909684.335  -1846040.633   5954442.708
10 0 59757  10902.000000  0   -2377742.867  -1202027.957   6341933.225
10 0 59757  11022.000000  0   -1792933.577   -546808.111   6617947.187
10 0 59757  11142.000000  0   -1165382.998    107344.101   6777665.810
10 0 59757  11262.000000  0    -506168.009    748363.722   6818302.807
10 0 59757  11382.000000  0     172879.311   1364617.211   6739150.471
10 0 59757  11502.000000  0     859383.575   1945113.336   6541591.568
10 0 59757  11622.000000  0    1540651.182   2479699.297   6229076.081
10 0 59757  11742.000000  0    2203903.966   2959238.244   5807064.552
10 0 59757  11862.000000  0    2836518.937   3375767.663   5282939.382
10 0 59757  11982.000000  0    3426271.291   3722635.805   4665881.949
10 0 59757  12102.000000  0    3961573.215   3994611.128   3966715.516
10 0 59757  12222.000000  0    4431705.029   4187965.591   3197722.109
10 0 59757  12342.000000  0    4827037.882   4300528.869   2372426.590
10 0 59757  12462.000000  0    5139234.223   4331709.310   1505356.470
10 0 59757  12582.000000  0    5361427.774   4282483.813    611781.856
10 0 59757  12702.000000  0    5488374.900   4155354.762   -292561.585
10 0 59757  12822.000000  0    5516572.879   3954275.523  -1191759.005
10 0 59757  12942.000000  0    5444343.540   3684546.529  -2070004.766
10 0 59757  13062.000000  0    5271879.811   3352684.376  -2911887.416
10 0 59757  13182.000000  0    5001254.671   2966268.669  -3702664.343
10 0 59757  13302.000000  0    4636393.363   2533771.066  -4428522.066
10 0 59757  13422.000000  0    4183008.186   2064368.517  -5076816.376
10 0 59757  13542.000000  0    3648499.903   1567747.367  -5636285.920
10 0 59757  13662.000000  0    3041828.679   1053903.808  -6097238.953
10 0 59757  13782.000000  0    2373356.790    532943.996  -6451710.802
10 0 59757  13902.000000  0    1654667.642     14888.160  -6693589.218
10 0 59757  14022.000000  0     898365.791   -490517.899  -6818709.957
10 0 59757  14142.000000  0     117857.290   -973982.347  -6824921.608
10 0 59757  14262.000000  0    -672883.370  -1426833.400  -6712116.615
10 0 59757  14382.000000  0   -1459556.767  -1841170.363  -6482233.431
10 0 59757  14502.000000  0   -2227791.519  -2209999.118  -6139227.328
10 0 59757  14622.000000  0   -2963401.077  -2527348.763  -5689008.908
10 0 59757  14742.000000  0   -3652641.734  -2788368.740  -5139353.504
10 0 59757  14862.000000  0   -4282470.439  -2989405.640  -4499779.033
10 0 59757  14982.000000  0   -4840794.905  -3128056.347  -3781391.500
10 0 59757  15102.000000  0   -5316711.616  -3203196.676  -2996701.551
10 0 59757  15222.000000  0   -5700727.152  -3214984.804  -2159412.954
10 0 59757  15342.000000  0   -5984956.371  -3164838.433  -1284185.625
10 0 59757  15462.000000  0   -6163292.484  -3055386.089   -386377.956
10 0 59757  15582.000000  0   -6231544.265  -2890392.875    518227.241
10 0 59757  15702.000000  0   -6187536.861  -2674662.724   1413707.549
10 0 59757  15822.000000  0   -6031171.296  -2413918.876   2284291.435
10 0 59757  15942.000000  0   -5764440.519  -2114665.268   3114644.680
10 0 59757  16062.000000  0   -5391405.385  -1784033.898   3890147.872
10 0 59757  16182.000000  0   -4918126.657  -1429620.436   4597160.553
10 0 59757  16302.000000  0   -4352557.373  -1059313.223   5223261.782
10 0 59757  16422.000000  0   -3704401.513   -681121.229   5757466.509
10 0 59757  16542.000000  0   -2984939.724   -303002.988   6190416.052
10 0 59757  16662.000000  0   -2206824.793     67299.669   6514537.330
10 0 59757  16782.000000  0   -1383852.698    422417.670   6724168.327
10 0 59757  16902.000000  0    -530715.118    755498.961   6815650.882
10 0 59757  17022.000000  0     337263.349   1060339.387   6787390.117
10 0 59757  17142.000000  0    1204399.511   1331497.578   6639880.383
10 0 59757  17262.000000  0    2054934.035   1564392.429   6375697.114
10 0 59757  17382.000000  0    2873316.897   1755380.598   5999454.564
10 0 59757  17502.000000  0    3644492.826   1901813.711   5517730.970
10 0 59757  17622.000000  0    4354181.413   2002074.027   4938958.824
10 0 59757  17742.000000  0    4989145.458   2055588.847   4273284.035
10 0 59757  17862.000000  0    5537446.970   2062823.327   3532394.462
10 0 59757  17982.000000  0    5988681.449   2025249.325   2729314.309
10 0 59757  18102.000000  0    6334182.596   1945293.233   1878175.519
10 0 59757  18222.000000  0    6567198.669   1826263.023    993965.673
10 0 59757  18342.000000  0    6683029.820   1672255.216     92257.020
10 0 59757  18462.000000  0    6679125.659   1488046.186   -811076.074
10 0 59757  18582.000000  0    6555138.257   1278968.692  -1700145.971
10 0 59757  18702.000000  0    6312932.218   1050776.453  -2559337.971
10 0 59757  18822.000000  0    5956550.396    809501.683  -3373591.500
10 0 59757  18942.000000  0    5492135.513    561309.772  -4128667.552
10 0 59757  19062.000000  0    4927811.397    312353.786  -4811397.661
10 0 59757  19182.000000  0    4273527.725     68632.491  -5409908.355
10 0 59757  19302.000000  0    3540874.099   -164144.053  -5913819.242
10 0 59757  19422.000000  0    2742866.865   -380679.115  -6314413.899
10 0 59757  19542.000000  0    1893711.859   -576202.020  -6604779.256
10 0 59757  19662.000000  0    1008551.281   -746566.805  -6779913.242
10 0 59757  19782.000000  0     103196.114   -888335.461  -6836803.085
10 0 59757  19902.000000  0    -806151.707   -998843.519  -6774470.417
10 0 59757  20022.000000  0   -1703181.869  -1076248.506  -6593986.448
10 0 59757  20142.000000  0   -2571762.121  -1119559.952  -6298455.575
10 0 59757  20262.000000  0   -3396221.616  -1128650.751  -5892966.428
10 0 59757  20382.000000  0   -4161629.156  -1104250.171  -5384514.910
10 0 59757  20502.000000  0   -4854065.050  -1047918.037  -4781895.040
10 0 59757  20622.000000  0   -5460878.198   -962000.440  -4095557.946
10 0 59757  20742.000000  0   -5970925.051   -849567.919  -3337441.342
10 0 59757  20862.000000  0   -6374785.736   -714336.487  -2520769.652
10 0 59757  20982.000000  0   -6664950.383   -560573.071  -1659827.436
10 0 59757  21102.000000  0   -6835971.955   -392988.180   -769710.336
10 0 59757  21222.000000  0   -6884580.461   -216616.213    133944.530
10 0 59757  21342.000000  0   -6809751.876    -36687.355   1035239.805
10 0 59757  21462.000000  0   -6612734.529    141504.624   1918305.178
10 0 59757  21582.000000  0   -6297029.232    312736.019   2767586.272
10 0 59757  21702.000000  0   -5868323.484    471985.156   3568127.437
10 0 59757  21822.000000  0   -5334381.230    614559.086   4305841.753
10 0 59757  21942.000000  0   -4704892.527    736211.389   4967762.153
10 0 59757  22062.000000  0   -3991287.090    833248.433   5542269.020
10 0 59757  22182.000000  0   -3206517.729    902621.976   6019291.321
10 0 59757  22302.000000  0   -2364817.068    942005.496   6390479.235
10 0 59757  22422.000000  0   -1481432.756    949853.687   6649345.242
10 0 59757  22542.000000  0    -572346.348    925443.838   6791370.563
10 0 59757  22662.000000  0     346016.562    868897.779   6814078.027
10 0 59757  22782.000000  0    1257082.102    781184.478   6717072.175
10 0 59757  22902.000000  0    2144425.855    664103.698   6502045.828
99
